{
    "links": {
        "self": "http://www.neowsapp.com/rest/v1/neo/54016997?api_key=iIulBulltgU6a56xZRHN4H3l9WmuAYTsLGpBGhQ2"
    },
    "id": "54016997",
    "neo_reference_id": "54016997",
    "name": "(2020 JL1)",
    "designation": "2020 JL1",
    "nasa_jpl_url": "http://ssd.jpl.nasa.gov/sbdb.cgi?sstr=54016997",
    "absolute_magnitude_h": 28.242,
    "estimated_diameter": {
        "kilometers": {
            "estimated_diameter_min": 0.0059724837,
            "estimated_diameter_max": 0.0133548797
        },
        "meters": {
            "estimated_diameter_min": 5.9724837475,
            "estimated_diameter_max": 13.3548796539
        },
        "miles": {
            "estimated_diameter_min": 0.0037111282,
            "estimated_diameter_max": 0.0082983349
        },
        "feet": {
            "estimated_diameter_min": 19.5947635781,
            "estimated_diameter_max": 43.8152233636
        }
    },
    "is_potentially_hazardous_asteroid": false,
    "close_approach_data": [
        {
            "close_approach_date": "2020-05-17",
            "close_approach_date_full": "2020-May-17 06:02",
            "epoch_date_close_approach": 1589695320000,
            "relative_velocity": {
                "kilometers_per_second": "10.3810518828",
                "kilometers_per_hour": "37371.7867781066",
                "miles_per_hour": "23221.3749566519"
            },
            "miss_distance": {
                "astronomical": "0.010590944",
                "lunar": "4.119877216",
                "kilometers": "1584382.66368928",
                "miles": "984489.735820864"
            },
            "orbiting_body": "Earth"
        },
        {
            "close_approach_date": "2119-06-16",
            "close_approach_date_full": "2119-Jun-16 03:15",
            "epoch_date_close_approach": 4716328500000,
            "relative_velocity": {
                "kilometers_per_second": "8.9945436693",
                "kilometers_per_hour": "32380.357209654",
                "miles_per_hour": "20119.8947339653"
            },
            "miss_distance": {
                "astronomical": "0.0799035423",
                "lunar": "31.0824779547",
                "kilometers": "11953399.733534901",
                "miles": "7427498.1767515938"
            },
            "orbiting_body": "Earth"
        }
    ],
    "orbital_data": {
        "orbit_id": "3",
        "orbit_determination_date": "2020-05-17 07:11:46",
        "first_observation_date": "2020-05-14",
        "last_observation_date": "2020-05-17",
        "data_arc_in_days": 3,
        "observations_used": 24,
        "orbit_uncertainty": "8",
        "minimum_orbit_intersection": ".01015",
        "jupiter_tisserand_invariant": "3.460",
        "epoch_osculation": "2458984.5",
        "eccentricity": ".5539435888021352",
        "semi_major_axis": "2.176494409436539",
        "inclination": "6.952330599267937",
        "ascending_node_longitude": "233.04922479",
        "orbital_period": "1172.829174953013",
        "perihelion_distance": ".9708392852654787",
        "perihelion_argument": "33.23885042746887",
        "aphelion_distance": "3.3821495336076",
        "perihelion_time": "2459010.550843638559",
        "mean_anomaly": "352.0036916627207",
        "mean_motion": ".3069500722596049",
        "equinox": "J2000",
        "orbit_class": {
            "orbit_class_type": "APO",
            "orbit_class_description": "Near-Earth asteroid orbits which cross the Earth’s orbit similar to that of 1862 Apollo",
            "orbit_class_range": "a (semi-major axis) > 1.0 AU; q (perihelion) < 1.017 AU"
        }
    },
    "is_sentry_object": false
}